NORAD_CAT_ID,OBJECT_NAME,OBJECT_TYPE,EPOCH,MEAN_MOTION,ECCENTRICITY,INCLINATION,RA_OF_ASC_NODE,ARG_OF_PERICENTER,MEAN_ANOMALY,BSTAR,MEAN_MOTION_DOT,MEAN_MOTION_DDOT,TLE_LINE0,TLE_LINE1,TLE_LINE2,SEMIMAJOR_AXIS,PERIOD,APOGEE,PERIGEE,DECAYED
51720.0,STARLINK-3526,PAYLOAD,2022-11-11 14:33:52,15.08820715,0.0002388,53.2203,19.3423,29.0815,331.031,-9.6797e-06,-4.42e-06,0.0,0 STARLINK-3526,1 51720U 22016G   22315.60685329 -.00000442  00000-0 -96797-5 0  9993,2 51720  53.2203  19.3423 0002388  29.0815 331.0310 15.08820715 41193,6917.939,95.439,541.456,538.1519999999998,0.0
51720.0,STARLINK-3526,PAYLOAD,2022-11-12 04:52:20,15.08823778,0.0002467,53.2198,16.6672,28.1823,331.9302,0.00026885,3.991e-05,0.0,0 STARLINK-3526,1 51720U 22016G   22316.20301363  .00003991  00000-0  26885-3 0  9992,2 51720  53.2198  16.6672 0002467  28.1823 331.9302 15.08823778 41281,6917.93,95.439,541.502,538.0880000000002,0.0
51720.0,STARLINK-3526,PAYLOAD,2022-11-12 12:49:15,15.08838578,0.0002533,53.2198,15.1805,25.563,334.5487,0.00041443,6.313e-05,0.0,0 STARLINK-3526,1 51720U 22016G   22316.53420655  .00006313  00000-0  41443-3 0  9992,2 51720  53.2198  15.1805 0002533  25.5630 334.5487 15.08838578 41337,6917.885,95.438,541.502,537.997,0.0
51720.0,STARLINK-3526,PAYLOAD,2022-11-12 20:46:10,15.08857799,0.0002475,53.219,13.6938,31.4276,328.6864,0.0005633999999999,8.694e-05,0.0,0 STARLINK-3526,1 51720U 22016G   22316.86540329  .00008694  00000-0  56340-3 0  9995,2 51720  53.2190  13.6938 0002475  31.4276 328.6864 15.08857799 40323,6917.826,95.436,541.403,537.979,0.0
51720.0,STARLINK-3526,PAYLOAD,2022-11-13 11:04:39,15.08846894,0.000229,53.2188,11.0175,35.5884,324.5261,-0.00039683,-6.6e-05,0.0,0 STARLINK-3526,1 51720U 22016G   22317.46156254 -.00006600  00000-0 -39683-3 0  9990,2 51720  53.2188  11.0175 0002290  35.5884 324.5261 15.08846894 40410,6917.859,95.437,541.309,538.14,0.0
51720.0,STARLINK-3526,PAYLOAD,2022-11-13 12:40:02,15.08846702,0.0002545,53.2186,10.7203,34.4631,325.6526,-0.00027756,-4.704e-05,0.0,0 STARLINK-3526,1 51720U 22016G   22317.52780350 -.00004704  00000-0 -27756-3 0  9998,2 51720  53.2186  10.7203 0002545  34.4631 325.6526 15.08846702 40422,6917.86,95.437,541.485,537.964,0.0
51720.0,STARLINK-3526,PAYLOAD,2022-11-14 09:20:03,15.08832275,0.000256,53.2194,6.8545,35.2487,324.8674,-7.315e-05,-1.452e-05,0.0,0 STARLINK-3526,1 51720U 22016G   22318.38893035 -.00001452  00000-0 -73150-4 0  9995,2 51720  53.2194   6.8545 0002560  35.2487 324.8674 15.08832275 41618,6917.904,95.438,541.54,537.998,0.0
51720.0,STARLINK-3526,PAYLOAD,2022-11-14 10:55:26,15.0883207,0.000254,53.2192,6.5572,33.8382,326.2772,-1.9916e-05,-6.05e-06,0.0,0 STARLINK-3526,1 51720U 22016G   22318.45517084 -.00000605  00000-0 -19916-4 0  9999,2 51720  53.2192   6.5572 0002540  33.8382 326.2772 15.08832070 40560,6917.905,95.438,541.5269999999998,538.012,0.0
51720.0,STARLINK-3526,PAYLOAD,2022-11-14 12:30:49,15.08832399,0.0002589,53.2189,6.2596,32.5544,327.5607,4.8292e-05,4.8e-06,0.0,0 STARLINK-3526,1 51720U 22016G   22318.52141152  .00000480  00000-0  48292-4 0  9994,2 51720  53.2189   6.2596 0002589  32.5544 327.5607 15.08832399 40574,6917.904,95.438,541.56,537.9780000000002,0.0
51720.0,STARLINK-3526,PAYLOAD,2022-11-15 10:46:14,15.08836477,0.00025,53.2184,2.0963,31.1077,329.0063,0.00022008,3.216e-05,0.0,0 STARLINK-3526,1 51720U 22016G   22319.44877396  .00003216  00000-0  22008-3 0  9998,2 51720  53.2184   2.0963 0002500  31.1077 329.0063 15.08836477 40710,6917.891,95.438,541.486,538.0269999999998,0.0
51720.0,STARLINK-3526,PAYLOAD,2022-11-16 12:12:24,15.08844834,0.0002617,53.2192,357.3384,31.7914,328.3236,0.00023417,3.441e-05,0.0,0 STARLINK-3526,1 51720U 22016G   22320.50861220  .00003441  00000-0  23417-3 0  9991,2 51720  53.2192 357.3384 0002617  31.7914 328.3236 15.08844834 41932,6917.866,95.437,541.5409999999998,537.92,0.0
51720.0,STARLINK-3526,PAYLOAD,2022-11-17 12:03:10,15.0884402,0.0002577,53.2195,352.8775,32.2375,327.8774,0.00010391,1.366e-05,0.0,0 STARLINK-3526,1 51720U 22016G   22321.50221009  .00001366  00000-0  10391-3 0  9998,2 51720  53.2195 352.8775 0002577  32.2375 327.8774 15.08844020 41029,6917.868,95.437,541.516,537.95,0.0
51720.0,STARLINK-3526,PAYLOAD,2022-11-18 11:53:58,15.08839661,0.0002475,53.2191,348.4183,33.5473,326.5676,9.9854e-05,1.301e-05,0.0,0 STARLINK-3526,1 51720U 22016G   22322.49581138  .00001301  00000-0  99854-4 0  9990,2 51720  53.2191 348.4183 0002475  33.5473 326.5676 15.08839661 42235,6917.880999999999,95.438,541.4590000000002,538.034,0.0
51720.0,STARLINK-3526,PAYLOAD,2022-11-19 02:12:26,15.0883383,0.0002705,53.2196,345.7421,30.6835,329.4314,-1.8549e-05,-5.84e-06,0.0,0 STARLINK-3526,1 51720U 22016G   22323.09197734 -.00000584  00000-0 -18549-4 0  9998,2 51720  53.2196 345.7421 0002705  30.6835 329.4314 15.08833830 42324,6917.899,95.438,541.636,537.893,0.0
51720.0,STARLINK-3526,PAYLOAD,2022-11-19 10:09:22,15.0884155,0.0002709,53.2195,344.2557,32.2959,327.8199,-3.0602e-05,-7.76e-06,0.0,0 STARLINK-3526,1 51720U 22016G   22323.42317354 -.00000776  00000-0 -30602-4 0  9994,2 51720  53.2195 344.2557 0002709  32.2959 327.8199 15.08841550 41315,6917.876,95.437,541.615,537.867,0.0
51720.0,STARLINK-3526,PAYLOAD,2022-11-19 18:06:17,15.08842938,0.0002679,53.2194,342.7687,31.0473,329.0677,8.048300000000001e-05,9.93e-06,0.0,0 STARLINK-3526,1 51720U 22016G   22323.75437052  .00000993  00000-0  80483-4 0  9999,2 51720  53.2194 342.7687 0002679  31.0473 329.0677 15.08842938 42424,6917.871,95.437,541.59,537.883,0.0
51720.0,STARLINK-3526,PAYLOAD,2022-11-20 11:35:32,15.08839962,0.000271,53.2192,339.4976,30.9311,329.1841,0.00012046,1.629e-05,0.0,0 STARLINK-3526,1 51720U 22016G   22324.48301269  .00001629  00000-0  12046-3 0  9996,2 51720  53.2192 339.4976 0002710  30.9311 329.1841 15.08839962 41472,6917.880999999999,95.438,541.62,537.871,0.0
51720.0,STARLINK-3526,PAYLOAD,2022-11-21 01:54:00,15.08837824,0.0002768999999999,53.2195,336.8211,29.5071,330.6077,0.0001052,1.386e-05,0.0,0 STARLINK-3526,1 51720U 22016G   22325.07917544  .00001386  00000-0  10520-3 0  9996,2 51720  53.2195 336.8211 0002769  29.5071 330.6077 15.08837824 42620,6917.887,95.438,541.668,537.836,0.0
51720.0,STARLINK-3526,PAYLOAD,2022-11-21 08:15:33,15.08836361,0.0002799,53.2196,335.6317,29.7181,330.397,7.955399999999999e-05,9.78e-06,0.0,0 STARLINK-3526,1 51720U 22016G   22325.34413811  .00000978  00000-0  79554-4 0  9993,2 51720  53.2196 335.6317 0002799  29.7181 330.3970 15.08836361 41603,6917.892,95.438,541.693,537.82,0.0
51720.0,STARLINK-3526,PAYLOAD,2022-11-22 04:55:35,15.08832509,0.0002661,53.2222,331.7677,36.1811,323.9361,-6.167399999999999e-05,-1.27e-05,0.0,0 STARLINK-3526,1 51720U 22016G   22326.20526935 -.00001270  00000-0 -61674-4 0  9993,2 51720  53.2222 331.7677 0002661  36.1811 323.9361 15.08832509 42792,6917.903,95.438,541.609,537.927,0.0
51720.0,STARLINK-3526,PAYLOAD,2022-11-22 08:06:21,15.08834572,0.0002795,53.2197,331.1723,34.8962,325.2213,3.0899000000000004e-05,2.03e-06,0.0,0 STARLINK-3526,1 51720U 22016G   22326.33774676  .00000203  00000-0  30899-4 0  9992,2 51720  53.2197 331.1723 0002795  34.8962 325.2213 15.08834572 41757,6917.897,95.438,541.696,537.828,0.0
51720.0,STARLINK-3526,PAYLOAD,2022-11-22 17:38:39,15.08839401,0.0002883,53.2197,329.3864,33.3395,326.7778,0.00011653,1.567e-05,0.0,0 STARLINK-3526,1 51720U 22016G   22326.73518381  .00001567  00000-0  11653-3 0  9995,2 51720  53.2197 329.3864 0002883  33.3395 326.7778 15.08839401 42876,6917.882,95.438,541.742,537.753,0.0
51720.0,STARLINK-3526,PAYLOAD,2022-11-23 09:32:31,15.08847325,0.0002989,53.2186,326.4142,34.9715,325.1473,0.00045511,6.964e-05,0.0,0 STARLINK-3526,1 51720U 22016G   22327.39758512  .00006964  00000-0  45511-3 0  9996,2 51720  53.2186 326.4142 0002989  34.9715 325.1473 15.08847325 41914,6917.858,95.437,541.7909999999998,537.655,0.0
51720.0,STARLINK-3526,PAYLOAD,2022-11-23 17:29:27,15.08838891,0.0002872,53.219,324.926,35.8578,324.2607,0.0002166,3.16e-05,0.0,0 STARLINK-3526,1 51720U 22016G   22327.72878836  .00003160  00000-0  21660-3 0  9999,2 51720  53.2190 324.9260 0002872  35.8578 324.2607 15.08838891 41963,6917.884,95.438,541.736,537.762,0.0
51720.0,STARLINK-3526,PAYLOAD,2022-11-24 06:12:32,15.0885166,0.0002986,53.2174,322.5481,35.0222,325.0966,0.00035737,5.406e-05,0.0,0 STARLINK-3526,1 51720U 22016G   22328.25870429  .00005406  00000-0  35737-3 0  9993,2 51720  53.2174 322.5481 0002986  35.0222 325.0966 15.08851660 43102,6917.845,95.437,541.775,537.644,0.0
51720.0,STARLINK-3526,PAYLOAD,2022-11-24 09:23:18,15.08854284,0.0002998,53.2175,321.9533,35.2635,324.8555,0.0004091,6.231e-05,0.0,0 STARLINK-3526,1 51720U 22016G   22328.39118341  .00006231  00000-0  40910-3 0  9992,2 51720  53.2175 321.9533 0002998  35.2635 324.8555 15.08854284 42067,6917.837,95.437,541.776,537.628,0.0
51720.0,STARLINK-3526,PAYLOAD,2022-11-24 17:20:13,15.08859697,0.0003016,53.2179,320.4663,35.7587,324.3607,0.00056984,8.797e-05,0.0,0 STARLINK-3526,1 51720U 22016G   22328.72238006  .00008797  00000-0  56984-3 0  9997,2 51720  53.2179 320.4663 0003016  35.7587 324.3607 15.08859697 42114,6917.82,95.436,541.7719999999998,537.599,0.0
51720.0,STARLINK-3526,PAYLOAD,2022-11-25 04:27:55,15.08849217,0.0003058999999999,53.2176,318.3847,36.0245,324.0953,0.00018811,2.707e-05,0.0,0 STARLINK-3526,1 51720U 22016G   22329.18606093  .00002707  00000-0  18811-3 0  9995,2 51720  53.2176 318.3847 0003059  36.0245 324.0953 15.08849217 43246,6917.852,95.437,541.8330000000002,537.601,0.0
51720.0,STARLINK-3526,PAYLOAD,2022-11-25 09:14:04,15.08849955,0.0003015,53.2182,317.4927,38.1259,321.9946,0.0001315,1.805e-05,0.0,0 STARLINK-3526,1 51720U 22016G   22329.38477955  .00001805  00000-0  13150-3 0  9999,2 51720  53.2182 317.4927 0003015  38.1259 321.9946 15.08849955 42215,6917.85,95.437,541.8009999999998,537.629,0.0
